[{"OBJECT_NAME":"ISS (ZARYA)","OBJECT_ID":"1998-067A","EPOCH":"2026-04-19T04:00:59.187744","MEAN_MOTION":15.48825421,"ECCENTRICITY":0.00066223,"INCLINATION":51.633,"RA_OF_ASC_NODE":232.2024,"ARG_OF_PERICENTER":324.6287,"MEAN_ANOMALY":35.4262,"EPHEMERIS_TYPE":0,"CLASSIFICATION_TYPE":"U","NORAD_CAT_ID":25544,"ELEMENT_SET_NO":999,"REV_AT_EPOCH":56260,"BSTAR":0.00015944184,"MEAN_MOTION_DOT":8.294e-5,"MEAN_MOTION_DDOT":0},{"OBJECT_NAME":"POISK","OBJECT_ID":"2009-060A","EPOCH":"2026-04-19T04:00:59.187744","MEAN_MOTION":15.48825421,"ECCENTRICITY":0.00066223,"INCLINATION":51.633,"RA_OF_ASC_NODE":232.2024,"ARG_OF_PERICENTER":324.6287,"MEAN_ANOMALY":35.4262,"EPHEMERIS_TYPE":0,"CLASSIFICATION_TYPE":"U","NORAD_CAT_ID":36086,"ELEMENT_SET_NO":999,"REV_AT_EPOCH":56149,"BSTAR":0.00015944184,"MEAN_MOTION_DOT":8.294e-5,"MEAN_MOTION_DDOT":0},{"OBJECT_NAME":"CSS (TIANHE)","OBJECT_ID":"2021-035A","EPOCH":"2026-04-19T06:14:49.483680","MEAN_MOTION":15.62553105,"ECCENTRICITY":0.00063676,"INCLINATION":41.4678,"RA_OF_ASC_NODE":320.9358,"ARG_OF_PERICENTER":236.9235,"MEAN_ANOMALY":123.0994,"EPHEMERIS_TYPE":0,"CLASSIFICATION_TYPE":"U","NORAD_CAT_ID":48274,"ELEMENT_SET_NO":999,"REV_AT_EPOCH":28395,"BSTAR":0.00026503236,"MEAN_MOTION_DOT":0.00024079,"MEAN_MOTION_DDOT":0},{"OBJECT_NAME":"ISS (NAUKA)","OBJECT_ID":"2021-066A","EPOCH":"2026-04-19T04:00:59.187744","MEAN_MOTION":15.48825421,"ECCENTRICITY":0.00066223,"INCLINATION":51.633,"RA_OF_ASC_NODE":232.2024,"ARG_OF_PERICENTER":324.6287,"MEAN_ANOMALY":35.4262,"EPHEMERIS_TYPE":0,"CLASSIFICATION_TYPE":"U","NORAD_CAT_ID":49044,"ELEMENT_SET_NO":999,"REV_AT_EPOCH":56153,"BSTAR":0.00015944184,"MEAN_MOTION_DOT":8.294e-5,"MEAN_MOTION_DDOT":0},{"OBJECT_NAME":"FREGAT DEB","OBJECT_ID":"2011-037PF","EPOCH":"2026-04-18T05:41:05.715744","MEAN_MOTION":12.40993473,"ECCENTRICITY":0.09454156,"INCLINATION":51.6415,"RA_OF_ASC_NODE":181.9872,"ARG_OF_PERICENTER":150.0785,"MEAN_ANOMALY":215.7731,"EPHEMERIS_TYPE":0,"CLASSIFICATION_TYPE":"U","NORAD_CAT_ID":49271,"ELEMENT_SET_NO":999,"REV_AT_EPOCH":21760,"BSTAR":0.0016109183,"MEAN_MOTION_DOT":9.8e-6,"MEAN_MOTION_DDOT":0},{"OBJECT_NAME":"CSS (WENTIAN)","OBJECT_ID":"2022-085A","EPOCH":"2026-04-19T06:14:49.483680","MEAN_MOTION":15.62553105,"ECCENTRICITY":0.00063676,"INCLINATION":41.4678,"RA_OF_ASC_NODE":320.9358,"ARG_OF_PERICENTER":236.9235,"MEAN_ANOMALY":123.0994,"EPHEMERIS_TYPE":0,"CLASSIFICATION_TYPE":"U","NORAD_CAT_ID":53239,"ELEMENT_SET_NO":999,"REV_AT_EPOCH":28313,"BSTAR":0.00026503236,"MEAN_MOTION_DOT":0.00024079,"MEAN_MOTION_DDOT":0},{"OBJECT_NAME":"CSS (MENGTIAN)","OBJECT_ID":"2022-143A","EPOCH":"2026-04-19T06:14:49.483680","MEAN_MOTION":15.62553105,"ECCENTRICITY":0.00063676,"INCLINATION":41.4678,"RA_OF_ASC_NODE":320.9358,"ARG_OF_PERICENTER":236.9235,"MEAN_ANOMALY":123.0994,"EPHEMERIS_TYPE":0,"CLASSIFICATION_TYPE":"U","NORAD_CAT_ID":54216,"ELEMENT_SET_NO":999,"REV_AT_EPOCH":28415,"BSTAR":0.00026503236,"MEAN_MOTION_DOT":0.00024079,"MEAN_MOTION_DDOT":0},{"OBJECT_NAME":"TIANZHOU-9","OBJECT_ID":"2025-149A","EPOCH":"2026-04-19T06:14:49.483680","MEAN_MOTION":15.62553105,"ECCENTRICITY":0.00063676,"INCLINATION":41.4678,"RA_OF_ASC_NODE":320.9358,"ARG_OF_PERICENTER":236.9235,"MEAN_ANOMALY":123.0994,"EPHEMERIS_TYPE":0,"CLASSIFICATION_TYPE":"U","NORAD_CAT_ID":64786,"ELEMENT_SET_NO":999,"REV_AT_EPOCH":28415,"BSTAR":0.00026503236,"MEAN_MOTION_DOT":0.00024079,"MEAN_MOTION_DDOT":0},{"OBJECT_NAME":"PROGRESS-MS 32","OBJECT_ID":"2025-204A","EPOCH":"2026-04-19T04:00:59.187744","MEAN_MOTION":15.48825421,"ECCENTRICITY":0.00066223,"INCLINATION":51.633,"RA_OF_ASC_NODE":232.2024,"ARG_OF_PERICENTER":324.6287,"MEAN_ANOMALY":35.4262,"EPHEMERIS_TYPE":0,"CLASSIFICATION_TYPE":"U","NORAD_CAT_ID":65586,"ELEMENT_SET_NO":999,"REV_AT_EPOCH":55450,"BSTAR":0.00015944184,"MEAN_MOTION_DOT":8.294e-5,"MEAN_MOTION_DDOT":0},{"OBJECT_NAME":"BOTAN","OBJECT_ID":"1998-067XQ","EPOCH":"2026-04-18T12:01:09.207264","MEAN_MOTION":16.30209286,"ECCENTRICITY":0.0010568,"INCLINATION":51.6087,"RA_OF_ASC_NODE":206.4857,"ARG_OF_PERICENTER":326.511,"MEAN_ANOMALY":33.5243,"EPHEMERIS_TYPE":0,"CLASSIFICATION_TYPE":"U","NORAD_CAT_ID":65943,"ELEMENT_SET_NO":999,"REV_AT_EPOCH":2985,"BSTAR":0.0010064,"MEAN_MOTION_DOT":0.04905991,"MEAN_MOTION_DDOT":1.2189e-5},{"OBJECT_NAME":"HRC MONOBLOCK CAMERA","OBJECT_ID":"1998-067XR","EPOCH":"2026-04-19T00:09:57.326400","MEAN_MOTION":15.66634896,"ECCENTRICITY":0.00042353,"INCLINATION":51.6259,"RA_OF_ASC_NODE":221.3675,"ARG_OF_PERICENTER":303.1426,"MEAN_ANOMALY":56.9163,"EPHEMERIS_TYPE":0,"CLASSIFICATION_TYPE":"U","NORAD_CAT_ID":66052,"ELEMENT_SET_NO":999,"REV_AT_EPOCH":2870,"BSTAR":0.00053708449,"MEAN_MOTION_DOT":0.00057315,"MEAN_MOTION_DDOT":0},{"OBJECT_NAME":"HTV-X1","OBJECT_ID":"2025-241A","EPOCH":"2026-04-19T01:55:21.839232","MEAN_MOTION":15.32689515,"ECCENTRICITY":0.0007693,"INCLINATION":51.6367,"RA_OF_ASC_NODE":238.2858,"ARG_OF_PERICENTER":329.3091,"MEAN_ANOMALY":30.7439,"EPHEMERIS_TYPE":0,"CLASSIFICATION_TYPE":"U","NORAD_CAT_ID":66174,"ELEMENT_SET_NO":999,"REV_AT_EPOCH":2713,"BSTAR":0.00018637959,"MEAN_MOTION_DOT":5.608e-5,"MEAN_MOTION_DDOT":0},{"OBJECT_NAME":"SZ-21 MODULE","OBJECT_ID":"2025-246C","EPOCH":"2026-04-19T06:29:20.185728","MEAN_MOTION":15.71706629,"ECCENTRICITY":0.00044601,"INCLINATION":41.4738,"RA_OF_ASC_NODE":312.9436,"ARG_OF_PERICENTER":291.991,"MEAN_ANOMALY":68.0459,"EPHEMERIS_TYPE":0,"CLASSIFICATION_TYPE":"U","NORAD_CAT_ID":66515,"ELEMENT_SET_NO":999,"REV_AT_EPOCH":2445,"BSTAR":0.00027193272,"MEAN_MOTION_DOT":0.00036019,"MEAN_MOTION_DDOT":0},{"OBJECT_NAME":"SHENZHOU-22","OBJECT_ID":"2025-272A","EPOCH":"2026-04-19T06:14:49.483680","MEAN_MOTION":15.62553105,"ECCENTRICITY":0.00063676,"INCLINATION":41.4678,"RA_OF_ASC_NODE":320.9358,"ARG_OF_PERICENTER":236.9235,"MEAN_ANOMALY":123.0994,"EPHEMERIS_TYPE":0,"CLASSIFICATION_TYPE":"U","NORAD_CAT_ID":66645,"ELEMENT_SET_NO":999,"REV_AT_EPOCH":28415,"BSTAR":0.00026503236,"MEAN_MOTION_DOT":0.00024079,"MEAN_MOTION_DDOT":0},{"OBJECT_NAME":"SOYUZ-MS 28","OBJECT_ID":"2025-275A","EPOCH":"2026-04-19T04:00:59.187744","MEAN_MOTION":15.48825421,"ECCENTRICITY":0.00066223,"INCLINATION":51.633,"RA_OF_ASC_NODE":232.2024,"ARG_OF_PERICENTER":324.6287,"MEAN_ANOMALY":35.4262,"EPHEMERIS_TYPE":0,"CLASSIFICATION_TYPE":"U","NORAD_CAT_ID":66664,"ELEMENT_SET_NO":999,"REV_AT_EPOCH":56177,"BSTAR":0.00015944184,"MEAN_MOTION_DOT":8.294e-5,"MEAN_MOTION_DDOT":0},{"OBJECT_NAME":"DUPLEX","OBJECT_ID":"1998-067XS","EPOCH":"2026-04-18T13:24:19.990944","MEAN_MOTION":15.58738285,"ECCENTRICITY":0.00041698,"INCLINATION":51.629,"RA_OF_ASC_NODE":229.6363,"ARG_OF_PERICENTER":309.6952,"MEAN_ANOMALY":50.3672,"EPHEMERIS_TYPE":0,"CLASSIFICATION_TYPE":"U","NORAD_CAT_ID":66906,"ELEMENT_SET_NO":999,"REV_AT_EPOCH":2134,"BSTAR":0.00038131122,"MEAN_MOTION_DOT":0.00029568,"MEAN_MOTION_DDOT":0}]
