ISS (ZARYA)             
1 25544U 98067A   26109.16735171  .00008294  00000+0  15944-3 0  9997
2 25544  51.6330 232.2024 0006622 324.6287  35.4262 15.48825421562604
POISK                   
1 36086U 09060A   26109.16735171  .00008294  00000+0  15944-3 0  9995
2 36086  51.6330 232.2024 0006622 324.6287  35.4262 15.48825421561493
CSS (TIANHE)            
1 48274U 21035A   26109.26029495  .00024079  00000+0  26503-3 0  9991
2 48274  41.4678 320.9358 0006367 236.9235 123.0994 15.62553105283957
ISS (NAUKA)             
1 49044U 21066A   26109.16735171  .00008294  00000+0  15944-3 0  9993
2 49044  51.6330 232.2024 0006622 324.6287  35.4262 15.48825421561536
FREGAT DEB              
1 49271U 11037PF  26108.23687171  .00000980  00000+0  16109-2 0  9992
2 49271  51.6415 181.9872 0945415 150.0785 215.7731 12.40993473217601
CSS (WENTIAN)           
1 53239U 22085A   26109.26029495  .00024079  00000+0  26503-3 0  9994
2 53239  41.4678 320.9358 0006367 236.9235 123.0994 15.62553105283134
CSS (MENGTIAN)          
1 54216U 22143A   26109.26029495  .00024079  00000+0  26503-3 0  9995
2 54216  41.4678 320.9358 0006367 236.9235 123.0994 15.62553105284153
TIANZHOU-9              
1 64786U 25149A   26109.26029495  .00024079  00000+0  26503-3 0  9997
2 64786  41.4678 320.9358 0006367 236.9235 123.0994 15.62553105284156
PROGRESS-MS 32          
1 65586U 25204A   26109.16735171  .00008294  00000+0  15944-3 0  9990
2 65586  51.6330 232.2024 0006622 324.6287  35.4262 15.48825421554504
BOTAN                   
1 65943U 98067XQ  26108.50080101  .04905991  12189-4  10064-2 0  9994
2 65943  51.6087 206.4857 0010568 326.5110  33.5243 16.30209286 29857
HRC MONOBLOCK CAMERA    
1 66052U 98067XR  26109.00691350  .00057315  00000+0  53708-3 0  9997
2 66052  51.6259 221.3675 0004235 303.1426  56.9163 15.66634896 28709
HTV-X1                  
1 66174U 25241A   26109.08011388  .00005608  00000+0  18638-3 0  9992
2 66174  51.6367 238.2858 0007693 329.3091  30.7439 15.32689515 27136
SZ-21 MODULE            
1 66515U 25246C   26109.27037252  .00036019  00000+0  27193-3 0  9991
2 66515  41.4738 312.9436 0004460 291.9910  68.0459 15.71706629 24456
SHENZHOU-22             
1 66645U 25272A   26109.26029495  .00024079  00000+0  26503-3 0  9990
2 66645  41.4678 320.9358 0006367 236.9235 123.0994 15.62553105284152
SOYUZ-MS 28             
1 66664U 25275A   26109.16735171  .00008294  00000+0  15944-3 0  9996
2 66664  51.6330 232.2024 0006622 324.6287  35.4262 15.48825421561779
DUPLEX                  
1 66906U 98067XS  26108.55856471  .00029568  00000+0  38131-3 0  9993
2 66906  51.6290 229.6363 0004169 309.6952  50.3672 15.58738285 21342
